{"type": "FeatureCollection", "features": [ {"type": "Feature", "properties": {"norad_id": 40664, "name": "SKY MEXICO-1", "group": "intelsat", "lat": 0.005097459232502243, "lon": -25.091869719088077, "alt_km": 35782.228436725454, "timestamp": "2025-12-03T22:42:32.324642+00:00", "meta": {"OBJECT_NAME": "SKY MEXICO-1", "OBJECT_ID": "2015-026B", "EPOCH": "2025-12-03T09:57:27.549216", "MEAN_MOTION": 1.00270532, "ECCENTRICITY": 0.0002768, "INCLINATION": 0.0167, "RA_OF_ASC_NODE": 333.4226, "ARG_OF_PERICENTER": 292.8884, "MEAN_ANOMALY": 236.8001, "EPHEMERIS_TYPE": 0, "CLASSIFICATION_TYPE": "U", "NORAD_CAT_ID": 40664, "ELEMENT_SET_NO": 999, "REV_AT_EPOCH": 3849, "BSTAR": 0, "MEAN_MOTION_DOT": -2.16e-06, "MEAN_MOTION_DDOT": 0}, "tle": {"line1": "1 40664U 15026B   25337.41490219 -.00000216  00000+0  00000+0 0  9992", "line2": "2 40664   0.0167 333.4226 0002768 292.8884 236.8001  1.00270532 38497"}}, "geometry": {"type": "Point", "coordinates": [-25.091869719088077, 0.005097459232502243]}}, {"type": "Feature", "properties": {"norad_id": 40874, "name": "INTELSAT 34 (IS-34)", "group": "intelsat", "lat": 0.027967269967727967, "lon": -1.8635095903894396, "alt_km": 35788.88407894189, "timestamp": "2025-12-03T22:42:32.324653+00:00", "meta": {"OBJECT_NAME": "INTELSAT 34 (IS-34)", "OBJECT_ID": "2015-039A", "EPOCH": "2025-12-03T08:21:21.754080", "MEAN_MOTION": 1.00270274, "ECCENTRICITY": 5.59e-05, "INCLINATION": 0.0131, "RA_OF_ASC_NODE": 302.376, "ARG_OF_PERICENTER": 226.1584, "MEAN_ANOMALY": 333.7468, "EPHEMERIS_TYPE": 0, "CLASSIFICATION_TYPE": "U", "NORAD_CAT_ID": 40874, "ELEMENT_SET_NO": 999, "REV_AT_EPOCH": 3766, "BSTAR": 0, "MEAN_MOTION_DOT": -2.67e-06, "MEAN_MOTION_DDOT": 0}, "tle": {"line1": "1 40874U 15039A   25337.34816845 -.00000267  00000+0  00000+0 0  9994", "line2": "2 40874   0.0131 302.3760 0000559 226.1584 333.7468  1.00270274 37667"}}, "geometry": {"type": "Point", "coordinates": [-1.8635095903894396, 0.027967269967727967]}}, {"type": "Feature", "properties": {"norad_id": 41581, "name": "INTELSAT 31 (IS-31)", "group": "intelsat", "lat": 0.0115646339676141, "lon": -41.40373807405036, "alt_km": 35787.729106469655, "timestamp": "2025-12-03T22:42:32.324664+00:00", "meta": {"OBJECT_NAME": "INTELSAT 31 (IS-31)", "OBJECT_ID": "2016-035A", "EPOCH": "2025-12-02T09:32:38.891904", "MEAN_MOTION": 1.00269687, "ECCENTRICITY": 0.00019053, "INCLINATION": 0.0144, "RA_OF_ASC_NODE": 272.373, "ARG_OF_PERICENTER": 308.7593, "MEAN_ANOMALY": 258.4788, "EPHEMERIS_TYPE": 0, "CLASSIFICATION_TYPE": "U", "NORAD_CAT_ID": 41581, "ELEMENT_SET_NO": 999, "REV_AT_EPOCH": 3471, "BSTAR": 0, "MEAN_MOTION_DOT": -1.3e-06, "MEAN_MOTION_DDOT": 0}, "tle": {"line1": "1 41581U 16035A   25336.39767236 -.00000130  00000+0  00000+0 0  9999", "line2": "2 41581   0.0144 272.3730 0001905 308.7593 258.4788  1.00269687 34710"}}, "geometry": {"type": "Point", "coordinates": [-41.40373807405036, 0.0115646339676141]}}, {"type": "Feature", "properties": {"norad_id": 41747, "name": "INTELSAT 36 (IS-36)", "group": "intelsat", "lat": 0.01943111144230092, "lon": 122.1494763979196, "alt_km": 35792.017949966554, "timestamp": "2025-12-03T22:42:32.324674+00:00", "meta": {"OBJECT_NAME": "INTELSAT 36 (IS-36)", "OBJECT_ID": "2016-053A", "EPOCH": "2025-12-03T00:23:05.477568", "MEAN_MOTION": 1.00270226, "ECCENTRICITY": 0.00013731, "INCLINATION": 0.0123, "RA_OF_ASC_NODE": 348.519, "ARG_OF_PERICENTER": 330.1213, "MEAN_ANOMALY": 187.7546, "EPHEMERIS_TYPE": 0, "CLASSIFICATION_TYPE": "U", "NORAD_CAT_ID": 41747, "ELEMENT_SET_NO": 999, "REV_AT_EPOCH": 3398, "BSTAR": 0, "MEAN_MOTION_DOT": -5e-08, "MEAN_MOTION_DDOT": 0}, "tle": {"line1": "1 41747U 16053A   25337.01603562 -.00000005  00000+0  00000+0 0  9995", "line2": "2 41747   0.0123 348.5190 0001373 330.1213 187.7546  1.00270226 33989"}}, "geometry": {"type": "Point", "coordinates": [122.1494763979196, 0.01943111144230092]}}, {"type": "Feature", "properties": {"norad_id": 41945, "name": "INTELSAT 32E (IS-32E)", "group": "intelsat", "lat": 0.0015719637576389963, "lon": 10.465452103688358, "alt_km": 35786.04257838651, "timestamp": "2025-12-03T22:42:32.324685+00:00", "meta": {"OBJECT_NAME": "INTELSAT 32E (IS-32E)", "OBJECT_ID": "2017-007B", "EPOCH": "2025-12-03T08:24:51.420096", "MEAN_MOTION": 1.00269596, "ECCENTRICITY": 1.84e-05, "INCLINATION": 0.029, "RA_OF_ASC_NODE": 67.4316, "ARG_OF_PERICENTER": 280.9577, "MEAN_ANOMALY": 167.0963, "EPHEMERIS_TYPE": 0, "CLASSIFICATION_TYPE": "U", "NORAD_CAT_ID": 41945, "ELEMENT_SET_NO": 999, "REV_AT_EPOCH": 3226, "BSTAR": 0, "MEAN_MOTION_DOT": -2.5e-06, "MEAN_MOTION_DDOT": 0}, "tle": {"line1": "1 41945U 17007B   25337.35059514 -.00000250  00000+0  00000+0 0  9996", "line2": "2 41945   0.0290  67.4316 0000184 280.9577 167.0963  1.00269596 32267"}}, "geometry": {"type": "Point", "coordinates": [10.465452103688358, 0.0015719637576389963]}}, {"type": "Feature", "properties": {"norad_id": 42818, "name": "INTELSAT 35E (IS-35E)", "group": "intelsat", "lat": 0.036571031211701584, "lon": 19.182054822888748, "alt_km": 35792.078149078465, "timestamp": "2025-12-03T22:42:32.324696+00:00", "meta": {"OBJECT_NAME": "INTELSAT 35E (IS-35E)", "OBJECT_ID": "2017-041A", "EPOCH": "2025-12-03T08:27:21.179808", "MEAN_MOTION": 1.00270876, "ECCENTRICITY": 0.0002333, "INCLINATION": 0.0186, "RA_OF_ASC_NODE": 325.4746, "ARG_OF_PERICENTER": 288.58, "MEAN_ANOMALY": 270.7495, "EPHEMERIS_TYPE": 0, "CLASSIFICATION_TYPE": "U", "NORAD_CAT_ID": 42818, "ELEMENT_SET_NO": 999, "REV_AT_EPOCH": 3085, "BSTAR": 0, "MEAN_MOTION_DOT": -2.19e-06, "MEAN_MOTION_DDOT": 0}, "tle": {"line1": "1 42818U 17041A   25337.35232847 -.00000219  00000+0  00000+0 0  9991", "line2": "2 42818   0.0186 325.4746 0002333 288.5800 270.7495  1.00270876 30854"}}, "geometry": {"type": "Point", "coordinates": [19.182054822888748, 0.036571031211701584]}}, {"type": "Feature", "properties": {"norad_id": 42950, "name": "INTELSAT 37E (IS-37E)", "group": "intelsat", "lat": 0.040425412724405946, "lon": 35.66567931738054, "alt_km": 35798.83688457868, "timestamp": "2025-12-03T22:42:32.324706+00:00", "meta": {"OBJECT_NAME": "INTELSAT 37E (IS-37E)", "OBJECT_ID": "2017-059A", "EPOCH": "2025-12-03T06:59:39.629760", "MEAN_MOTION": 1.00270828, "ECCENTRICITY": 0.0003434, "INCLINATION": 0.0159, "RA_OF_ASC_NODE": 312.1581, "ARG_OF_PERICENTER": 294.5147, "MEAN_ANOMALY": 272.6335, "EPHEMERIS_TYPE": 0, "CLASSIFICATION_TYPE": "U", "NORAD_CAT_ID": 42950, "ELEMENT_SET_NO": 999, "REV_AT_EPOCH": 3010, "BSTAR": 0, "MEAN_MOTION_DOT": -1.22e-06, "MEAN_MOTION_DDOT": 0}, "tle": {"line1": "1 42950U 17059A   25337.29143090 -.00000122  00000+0  00000+0 0  9994", "line2": "2 42950   0.0159 312.1581 0003434 294.5147 272.6335  1.00270828 30104"}}, "geometry": {"type": "Point", "coordinates": [35.66567931738054, 0.040425412724405946]}}, {"type": "Feature", "properties": {"norad_id": 43632, "name": "AZERSPACE 2 (IS-38)", "group": "intelsat", "lat": 0.030151601303507074, "lon": 98.74372477457213, "alt_km": 35792.62335070046, "timestamp": "2025-12-03T22:42:32.324717+00:00", "meta": {"OBJECT_NAME": "AZERSPACE 2 (IS-38)", "OBJECT_ID": "2018-074A", "EPOCH": "2025-12-03T01:59:05.629920", "MEAN_MOTION": 1.00271401, "ECCENTRICITY": 0.00016897, "INCLINATION": 0.0147, "RA_OF_ASC_NODE": 335.5882, "ARG_OF_PERICENTER": 279.2754, "MEAN_ANOMALY": 252.1998, "EPHEMERIS_TYPE": 0, "CLASSIFICATION_TYPE": "U", "NORAD_CAT_ID": 43632, "ELEMENT_SET_NO": 999, "REV_AT_EPOCH": 2648, "BSTAR": 0, "MEAN_MOTION_DOT": 1.56e-06, "MEAN_MOTION_DDOT": 0}, "tle": {"line1": "1 43632U 18074A   25337.08270405  .00000156  00000+0  00000+0 0  9994", "line2": "2 43632   0.0147 335.5882 0001689 279.2754 252.1998  1.00271401 26488"}}, "geometry": {"type": "Point", "coordinates": [98.74372477457213, 0.030151601303507074]}}, {"type": "Feature", "properties": {"norad_id": 43633, "name": "HORIZONS-3E", "group": "intelsat", "lat": -0.015516437686597426, "lon": -137.35782538464562, "alt_km": 35785.11372803056, "timestamp": "2025-12-03T22:42:32.324728+00:00", "meta": {"OBJECT_NAME": "HORIZONS-3E", "OBJECT_ID": "2018-074B", "EPOCH": "2025-12-02T09:32:38.562720", "MEAN_MOTION": 1.00268601, "ECCENTRICITY": 0.00010808, "INCLINATION": 0.0303, "RA_OF_ASC_NODE": 208.778, "ARG_OF_PERICENTER": 80.6678, "MEAN_ANOMALY": 94.2479, "EPHEMERIS_TYPE": 0, "CLASSIFICATION_TYPE": "U", "NORAD_CAT_ID": 43633, "ELEMENT_SET_NO": 999, "REV_AT_EPOCH": 2636, "BSTAR": 0, "MEAN_MOTION_DOT": -1e-07, "MEAN_MOTION_DDOT": 0}, "tle": {"line1": "1 43633U 18074B   25336.39766855 -.00000010  00000+0  00000+0 0  9997", "line2": "2 43633   0.0303 208.7780 0001080  80.6678  94.2479  1.00268601 26369"}}, "geometry": {"type": "Point", "coordinates": [-137.35782538464562, -0.015516437686597426]}}, {"type": "Feature", "properties": {"norad_id": 44333, "name": "AT&T T-16", "group": "intelsat", "lat": -0.018615141935169076, "lon": -47.22474852982682, "alt_km": 35788.711621280345, "timestamp": "2025-12-03T22:42:32.324739+00:00", "meta": {"OBJECT_NAME": "AT&T T-16", "OBJECT_ID": "2019-034A", "EPOCH": "2025-12-03T09:51:05.656896", "MEAN_MOTION": 1.00268504, "ECCENTRICITY": 4.72e-05, "INCLINATION": 0.0319, "RA_OF_ASC_NODE": 73.4258, "ARG_OF_PERICENTER": 90.2929, "MEAN_ANOMALY": 315.6945, "EPHEMERIS_TYPE": 0, "CLASSIFICATION_TYPE": "U", "NORAD_CAT_ID": 44333, "ELEMENT_SET_NO": 999, "REV_AT_EPOCH": 2367, "BSTAR": 0, "MEAN_MOTION_DOT": -9.6e-07, "MEAN_MOTION_DDOT": 0}, "tle": {"line1": "1 44333U 19034A   25337.41048214 -.00000096  00000+0  00000+0 0  9992", "line2": "2 44333   0.0319  73.4258 0000472  90.2929 315.6945  1.00268504 23672"}}, "geometry": {"type": "Point", "coordinates": [-47.22474852982682, -0.018615141935169076]}}]}